IRIDIUM 7               
1 24793U 97020B   25343.28752858  .00000834  00000+0  28011-3 0  9994
2 24793  86.3952 103.5450 0001678  95.8660 264.2728 14.36101569497023
IRIDIUM 5               
1 24795U 97020D   25343.31254902  .00006767  00000+0  53337-3 0  9997
2 24795  86.3881   2.8497 0102581 227.8533 131.3949 14.96458265511636
IRIDIUM 4               
1 24796U 97020E   25343.30039875  .00000892  00000+0  29444-3 0  9992
2 24796  86.3948 100.2987 0001871  91.9448 268.1964 14.37007320497617
IRIDIUM 914             
1 24836U 97030A   25343.29867361  .00000990  00000+0  30164-3 0  9995
2 24836  86.3928 108.3866 0002500  54.1649 305.9782 14.41063151632347
IRIDIUM 16              
1 24841U 97030F   25342.96592005  .00000813  00000+0  25799-3 0  9996
2 24841  86.4031 131.9019 0002055 155.8581 204.2714 14.38880995492136
IRIDIUM 911             
1 24842U 97030G   25343.32875807  .00001287  00000+0  34189-3 0  9991
2 24842  86.4454 130.3264 0012591 228.1991 131.8138 14.47886391500429
IRIDIUM 17              
1 24870U 97034B   25342.98966766  .00000696  00000+0  22373-3 0  9997
2 24870  86.3972 161.3128 0002945 121.4851 238.6636 14.38017692488704
IRIDIUM 920             
1 24871U 97034C   25342.93064905  .00000789  00000+0  23587-3 0  9998
2 24871  86.3975 140.1730 0010218 217.2648 142.7844 14.41721685491755
